[{"OBJECT_NAME":"OUTPOST MISSION 1","OBJECT_ID":"2023-084BK","EPOCH":"2026-03-09T23:19:35.444064","MEAN_MOTION":15.70083334,"ECCENTRICITY":0.00047289,"INCLINATION":97.5968,"RA_OF_ASC_NODE":222.1792,"ARG_OF_PERICENTER":254.2575,"MEAN_ANOMALY":105.8165,"EPHEMERIS_TYPE":0,"CLASSIFICATION_TYPE":"U","NORAD_CAT_ID":56226,"ELEMENT_SET_NO":999,"REV_AT_EPOCH":15332,"BSTAR":0.000839791,"MEAN_MOTION_DOT":0.00102103,"MEAN_MOTION_DDOT":0},{"OBJECT_NAME":"STARLINK-11346 [DTC]","OBJECT_ID":"2024-195L","EPOCH":"2026-03-09T06:56:28.669344","MEAN_MOTION":15.69705888,"ECCENTRICITY":0.00013576,"INCLINATION":53.1591,"RA_OF_ASC_NODE":28.0184,"ARG_OF_PERICENTER":65.1565,"MEAN_ANOMALY":294.9594,"EPHEMERIS_TYPE":0,"CLASSIFICATION_TYPE":"U","NORAD_CAT_ID":61697,"ELEMENT_SET_NO":999,"REV_AT_EPOCH":7897,"BSTAR":2.432164e-6,"MEAN_MOTION_DOT":-2.94e-6,"MEAN_MOTION_DDOT":0}]
